OBJECT_NAME,OBJECT_ID,EPOCH,MEAN_MOTION,ECCENTRICITY,INCLINATION,RA_OF_ASC_NODE,ARG_OF_PERICENTER,MEAN_ANOMALY,EPHEMERIS_TYPE,CLASSIFICATION_TYPE,NORAD_CAT_ID,ELEMENT_SET_NO,REV_AT_EPOCH,BSTAR,MEAN_MOTION_DOT,MEAN_MOTION_DDOT
SL-8 R/B,1985-006B,2026-07-02T20:51:57.155328,14.37840888,.001922,74.0455,49.2057,293.9934,76.7239,0,U,15483,999,17058,.70155957E-4,.185E-5,0
SL-12 R/B(2),1985-042D,2026-07-02T19:12:40.379904,14.22008879,.00370202,71.1061,204.5291,304.4132,228.3769,0,U,15772,999,13075,.24762535E-4,.7E-7,0
SL-14 R/B,1985-069B,2026-07-02T17:14:38.025888,14.86527810,.00191175,82.5273,276.7596,166.7944,193.3777,0,U,15945,999,18992,.55877652E-4,.521E-5,0
SL-16 R/B,1985-097B,2026-07-02T16:20:23.147808,14.16614760,.00052566,71.0030,258.4596,77.0182,85.0815,0,U,16182,999,10351,-.18005253E-4,-.84E-6,0
SL-14 R/B,1986-006B,2026-07-02T22:23:10.143456,14.86959957,.00747637,82.5272,151.2958,250.2013,109.1132,0,U,16496,999,16633,.52292855E-4,.518E-5,0
COSMOS 1743,1986-034A,2026-07-02T20:23:18.772512,15.68445434,.00048915,82.5283,312.0623,216.1233,143.9698,0,U,16719,999,19824,.54110253E-3,.61301E-3,0
SL-14 R/B,1986-046B,2026-07-02T20:17:48.975936,14.85682982,.00224292,82.4829,331.3783,203.9965,156.0208,0,U,16792,999,14350,.58518187E-4,.534E-5,0
SL-14 R/B,1986-055B,2026-07-02T19:52:15.614400,14.85733622,.00177332,82.5198,18.4261,314.6163,55.9862,0,U,16882,999,13646,.48704519E-4,.448E-5,0
AJISAI (EGS),1986-061A,2026-07-02T21:13:01.416288,12.44516672,.00111315,50.0090,99.1275,220.4535,246.7762,0,U,16908,999,48234,.60205447E-4,-.89E-6,0
SL-14 R/B,1987-024B,2026-07-02T20:05:38.721408,14.86224406,.00169106,82.5287,344.5388,236.7603,123.1994,0,U,17567,999,10523,.53912793E-4,.499E-5,0
COSMOS 1833,1987-027A,2026-07-02T19:45:54.602496,14.13061245,.00234347,70.9209,84.0034,29.0395,331.2024,0,U,17589,999,2658,.16222611E-3,.256E-5,0
SL-16 R/B,1987-027B,2026-07-02T21:15:33.070752,14.17175028,.00070029,71.0033,33.7472,295.3214,64.7184,0,U,17590,999,3166,.23451503E-4,-.1E-7,0
SL-14 R/B,1987-038B,2026-07-02T18:09:45.463680,14.85454815,.00202276,82.5003,188.4062,140.6675,219.6015,0,U,17912,999,9631,.47564891E-4,.436E-5,0
COSMOS 1844,1987-041A,2026-07-02T21:01:53.639328,14.14572883,.00320661,70.8977,151.2130,212.6798,147.2341,0,U,17973,999,1987,.23033222E-3,.396E-5,0
SL-14 R/B,1987-055B,2026-07-02T13:53:20.359104,14.85720977,.0020449,82.4983,240.7202,358.1069,2.0066,0,U,18153,999,8699,.46082E-4,.425E-5,0
COSMOS 1867,1987-060A,2026-07-02T20:26:46.516128,14.31517529,.00168643,65.0117,344.1878,282.1308,77.7887,0,U,18187,999,3642,.27092471E-4,-.28E-6,0
SL-14 R/B,1988-001B,2026-07-02T17:11:47.393664,14.85620294,.00170654,82.5132,87.1643,213.9437,146.0689,0,U,18749,999,5910,.48249088E-4,.443E-5,0
COSMOS 1933,1988-020A,2026-07-02T20:23:56.131008,15.18819715,.00051002,82.5136,136.9243,138.5153,221.6469,0,U,18958,999,6770,.21202622E-3,.4444E-4,0
SL-3 R/B,1988-032B,2026-07-02T21:38:39.088320,15.20953965,.00251995,97.5264,166.9281,187.8194,172.2652,0,U,19046,999,6961,.20232478E-3,.4446E-4,0
SL-16 R/B,1988-039B,2026-07-02T16:37:53.784768,14.19631044,.00212864,71.0128,185.3704,169.4519,190.7057,0,U,19120,999,97470,.64941609E-4,.89E-6,0
COSMOS 1953,1988-050A,2026-07-03T02:33:38.017728,15.30196644,.00123091,82.5063,41.9778,77.7542,282.5076,0,U,19210,999,5542,.2412677E-3,.7096E-4,0
SL-8 R/B,1988-053B,2026-07-02T11:59:45.637728,14.38973580,.0019307,74.0475,260.8316,50.5253,322.9631,0,U,19257,999,99311,.83933E-4,.233E-5,0
COSMOS 1975,1988-093A,2026-07-02T11:08:20.261760,15.29526290,.0012391,82.5189,2.3310,121.8676,238.3772,0,U,19573,999,3694,.26555E-3,.7648E-4,0
SL-14 R/B,1988-093B,2026-07-02T20:11:10.929408,14.85753618,.00211267,82.5321,293.9489,21.2249,98.9079,0,U,19574,999,1811,.51637431E-4,.474E-5,0
SL-16 R/B,1988-102B,2026-07-02T14:46:13.873440,14.16169454,.0014978,71.0003,269.6762,204.0874,155.9550,0,U,19650,999,94316,.5311324E-4,.57E-6,0
INTERCOSMOS 24,1989-080A,2026-07-02T12:04:49.245600,12.59682968,.1187868,82.6049,29.6777,26.3958,339.2942,0,U,20261,999,68125,.20095E-3,.703E-5,0
SL-14 R/B,1989-080C,2026-07-02T20:12:33.553728,12.50576146,.12283953,82.5942,99.2502,281.5660,65.0317,0,U,20262,999,67454,.51151719E-4,.169E-5,0
DELTA 1 R/B,1989-089B,2026-07-02T19:22:15.309696,14.50741431,.00703653,97.0633,12.8657,118.2612,242.5712,0,U,20323,999,91242,.10002421E-3,.371E-5,0
ARIANE 40 R/B,1990-005H,2026-07-02T14:38:27.661632,14.39935633,.00094359,98.2952,240.7462,212.6608,147.3998,0,U,20443,999,90934,.10718634E-3,.295E-5,0
DELTA 2 R/B(1),1990-008B,2026-07-02T21:30:18.904896,15.71405008,.00640128,35.5999,130.3735,261.7666,97.5811,0,U,20453,999,94417,.60066259E-3,.90828E-3,0
