SL-8 R/B                
1 15483U 85006B   26183.86941152  .00000185  00000+0  70156-4 0  9992
2 15483  74.0455  49.2057 0019220 293.9934  76.7239 14.37840888170584
SL-12 R/B(2)            
1 15772U 85042D   26183.80046736  .00000007  00000+0  24763-4 0  9997
2 15772  71.1061 204.5291 0037020 304.4132 228.3769 14.22008879130756
SL-14 R/B               
1 15945U 85069B   26183.71849567  .00000521  00000+0  55878-4 0  9993
2 15945  82.5273 276.7596 0019117 166.7944 193.3777 14.86527810189929
SL-16 R/B               
1 16182U 85097B   26183.68082347 -.00000084  00000+0 -18005-4 0  9996
2 16182  71.0030 258.4596 0005256  77.0182  85.0815 14.16614760103516
SL-14 R/B               
1 16496U 86006B   26183.93275629  .00000518  00000+0  52293-4 0  9997
2 16496  82.5272 151.2958 0074763 250.2013 109.1132 14.86959957166334
COSMOS 1743             
1 16719U 86034A   26183.84952283  .00061301  00000+0  54110-3 0  9990
2 16719  82.5283 312.0623 0004891 216.1233 143.9698 15.68445434198249
SL-14 R/B               
1 16792U 86046B   26183.84570574  .00000534  00000+0  58518-4 0  9991
2 16792  82.4829 331.3783 0022429 203.9965 156.0208 14.85682982143509
SL-14 R/B               
1 16882U 86055B   26183.82795850  .00000448  00000+0  48705-4 0  9996
2 16882  82.5198  18.4261 0017733 314.6163  55.9862 14.85733622136463
AJISAI (EGS)            
1 16908U 86061A   26183.88404417 -.00000089  00000+0  60205-4 0  9995
2 16908  50.0090  99.1275 0011131 220.4535 246.7762 12.44516672482344
SL-14 R/B               
1 17567U 87024B   26183.83725372  .00000499  00000+0  53913-4 0  9990
2 17567  82.5287 344.5388 0016910 236.7603 123.1994 14.86224406105236
COSMOS 1833             
1 17589U 87027A   26183.82354864  .00000256  00000+0  16223-3 0  9993
2 17589  70.9209  84.0034 0023434  29.0395 331.2024 14.13061245 26585
SL-16 R/B               
1 17590U 87027B   26183.88579943 -.00000001  00000+0  23452-4 0  9990
2 17590  71.0033  33.7472 0007002 295.3214  64.7184 14.17175028 31661
SL-14 R/B               
1 17912U 87038B   26183.75677620  .00000436  00000+0  47565-4 0  9999
2 17912  82.5003 188.4062 0020227 140.6675 219.6015 14.85454815 96319
COSMOS 1844             
1 17973U 87041A   26183.87631527  .00000396  00000+0  23033-3 0  9997
2 17973  70.8977 151.2130 0032066 212.6798 147.2341 14.14572883 19872
SL-14 R/B               
1 18153U 87055B   26183.57870786  .00000425  00000+0  46082-4 0  9995
2 18153  82.4983 240.7202 0020449 358.1069   2.0066 14.85720977 86998
COSMOS 1867             
1 18187U 87060A   26183.85192727 -.00000028  00000+0  27092-4 0  9991
2 18187  65.0117 344.1878 0016864 282.1308  77.7887 14.31517529 36428
SL-14 R/B               
1 18749U 88001B   26183.71652076  .00000443  00000+0  48249-4 0  9991
2 18749  82.5132  87.1643 0017065 213.9437 146.0689 14.85620294 59109
COSMOS 1933             
1 18958U 88020A   26183.84995522  .00004444  00000+0  21203-3 0  9999
2 18958  82.5136 136.9243 0005100 138.5153 221.6469 15.18819715 67704
SL-3 R/B                
1 19046U 88032B   26183.90184130  .00004446  00000+0  20232-3 0  9996
2 19046  97.5264 166.9281 0025199 187.8194 172.2652 15.20953965 69614
SL-16 R/B               
1 19120U 88039B   26183.69298362  .00000089  00000+0  64942-4 0  9991
2 19120  71.0128 185.3704 0021286 169.4519 190.7057 14.19631044974705
COSMOS 1953             
1 19210U 88050A   26184.10669002  .00007096  00000+0  24127-3 0  9999
2 19210  82.5063  41.9778 0012309  77.7542 282.5076 15.30196644 55427
SL-8 R/B                
1 19257U 88053B   26183.49983377  .00000233  00000+0  83933-4 0  9995
2 19257  74.0475 260.8316 0019307  50.5253 322.9631 14.38973580993116
COSMOS 1975             
1 19573U 88093A   26183.46412340  .00007648  00000+0  26555-3 0  9997
2 19573  82.5189   2.3310 0012391 121.8676 238.3772 15.29526290 36941
SL-14 R/B               
1 19574U 88093B   26183.84109872  .00000474  00000+0  51637-4 0  9993
2 19574  82.5321 293.9489 0021126  21.2249  98.9079 14.85753618 18116
SL-16 R/B               
1 19650U 88102B   26183.61543835  .00000057  00000+0  53113-4 0  9993
2 19650  71.0003 269.6762 0014978 204.0874 155.9550 14.16169454943160
INTERCOSMOS 24          
1 20261U 89080A   26183.50334775  .00000703  00000+0  20095-3 0  9998
2 20261  82.6049  29.6777 1187868  26.3958 339.2942 12.59682968681252
SL-14 R/B               
1 20262U 89080C   26183.84205502  .00000169  00000+0  51152-4 0  9996
2 20262  82.5942  99.2502 1228395 281.5660  65.0317 12.50576146674544
DELTA 1 R/B             
1 20323U 89089B   26183.80712164  .00000371  00000+0  10002-3 0  9999
2 20323  97.0633  12.8657 0070365 118.2612 242.5712 14.50741431912422
ARIANE 40 R/B           
1 20443U 90005H   26183.61004238  .00000295  00000+0  10719-3 0  9997
2 20443  98.2952 240.7462 0009435 212.6608 147.3998 14.39935633909343
DELTA 2 R/B(1)          
1 20453U 90008B   26183.89605214  .00090828  00000+0  60066-3 0  9993
2 20453  35.5999 130.3735 0064012 261.7666  97.5811 15.71405008944172
